[{"OBJECT_NAME":"ONEWEB-0058","OBJECT_ID":"2020-008AG","EPOCH":"2026-03-07T04:43:46.927488","MEAN_MOTION":13.10370323,"ECCENTRICITY":0.0001977,"INCLINATION":87.8767,"RA_OF_ASC_NODE":56.5875,"ARG_OF_PERICENTER":93.8524,"MEAN_ANOMALY":266.2829,"EPHEMERIS_TYPE":0,"CLASSIFICATION_TYPE":"U","NORAD_CAT_ID":45161,"ELEMENT_SET_NO":999,"REV_AT_EPOCH":29506,"BSTAR":0.001215,"MEAN_MOTION_DOT":4.37e-6,"MEAN_MOTION_DDOT":0},{"OBJECT_NAME":"ONEWEB-0059","OBJECT_ID":"2020-008AH","EPOCH":"2026-03-07T00:58:53.105088","MEAN_MOTION":13.10371727,"ECCENTRICITY":0.0001808,"INCLINATION":87.8765,"RA_OF_ASC_NODE":56.6192,"ARG_OF_PERICENTER":90.2162,"MEAN_ANOMALY":269.9173,"EPHEMERIS_TYPE":0,"CLASSIFICATION_TYPE":"U","NORAD_CAT_ID":45162,"ELEMENT_SET_NO":999,"REV_AT_EPOCH":29494,"BSTAR":0.001565,"MEAN_MOTION_DOT":5.59e-6,"MEAN_MOTION_DDOT":0},{"OBJECT_NAME":"ONEWEB-0062","OBJECT_ID":"2020-008AJ","EPOCH":"2026-03-06T23:45:57.190464","MEAN_MOTION":13.10371386,"ECCENTRICITY":0.0002149,"INCLINATION":87.8774,"RA_OF_ASC_NODE":56.6116,"ARG_OF_PERICENTER":96.2369,"MEAN_ANOMALY":263.9003,"EPHEMERIS_TYPE":0,"CLASSIFICATION_TYPE":"U","NORAD_CAT_ID":45163,"ELEMENT_SET_NO":999,"REV_AT_EPOCH":29480,"BSTAR":-0.0015184,"MEAN_MOTION_DOT":-5.17e-6,"MEAN_MOTION_DDOT":0},{"OBJECT_NAME":"ONEWEB-0065","OBJECT_ID":"2020-008AK","EPOCH":"2026-03-06T22:40:02.265024","MEAN_MOTION":13.10377073,"ECCENTRICITY":0.0001737,"INCLINATION":87.8773,"RA_OF_ASC_NODE":56.6295,"ARG_OF_PERICENTER":74.0096,"MEAN_ANOMALY":286.1223,"EPHEMERIS_TYPE":0,"CLASSIFICATION_TYPE":"U","NORAD_CAT_ID":45164,"ELEMENT_SET_NO":999,"REV_AT_EPOCH":29449,"BSTAR":0.00085808,"MEAN_MOTION_DOT":3.12e-6,"MEAN_MOTION_DDOT":0},{"OBJECT_NAME":"ONEWEB-0066","OBJECT_ID":"2020-020A","EPOCH":"2026-03-06T21:49:00.725088","MEAN_MOTION":13.11417373,"ECCENTRICITY":0.0001692,"INCLINATION":87.8865,"RA_OF_ASC_NODE":41.4023,"ARG_OF_PERICENTER":87.4916,"MEAN_ANOMALY":272.6406,"EPHEMERIS_TYPE":0,"CLASSIFICATION_TYPE":"U","NORAD_CAT_ID":45424,"ELEMENT_SET_NO":999,"REV_AT_EPOCH":28927,"BSTAR":0.0011191,"MEAN_MOTION_DOT":4.09e-6,"MEAN_MOTION_DDOT":0},{"OBJECT_NAME":"ONEWEB-0067","OBJECT_ID":"2020-020B","EPOCH":"2026-03-06T22:42:54.775584","MEAN_MOTION":13.11414435,"ECCENTRICITY":0.0001637,"INCLINATION":87.8868,"RA_OF_ASC_NODE":41.3038,"ARG_OF_PERICENTER":80.1427,"MEAN_ANOMALY":279.9886,"EPHEMERIS_TYPE":0,"CLASSIFICATION_TYPE":"U","NORAD_CAT_ID":45425,"ELEMENT_SET_NO":999,"REV_AT_EPOCH":28933,"BSTAR":-0.0012962,"MEAN_MOTION_DOT":-4.47e-6,"MEAN_MOTION_DDOT":0},{"OBJECT_NAME":"ONEWEB-0080","OBJECT_ID":"2020-020C","EPOCH":"2026-03-07T04:25:42.980736","MEAN_MOTION":13.11413653,"ECCENTRICITY":0.0002067,"INCLINATION":87.8866,"RA_OF_ASC_NODE":41.3449,"ARG_OF_PERICENTER":90.8405,"MEAN_ANOMALY":269.2959,"EPHEMERIS_TYPE":0,"CLASSIFICATION_TYPE":"U","NORAD_CAT_ID":45426,"ELEMENT_SET_NO":999,"REV_AT_EPOCH":28933,"BSTAR":-0.0018687,"MEAN_MOTION_DOT":-6.5e-6,"MEAN_MOTION_DDOT":0},{"OBJECT_NAME":"ONEWEB-0090","OBJECT_ID":"2020-020D","EPOCH":"2026-03-06T23:24:25.203744","MEAN_MOTION":13.11418315,"ECCENTRICITY":0.0001871,"INCLINATION":87.8866,"RA_OF_ASC_NODE":41.3876,"ARG_OF_PERICENTER":83.4812,"MEAN_ANOMALY":276.6529,"EPHEMERIS_TYPE":0,"CLASSIFICATION_TYPE":"U","NORAD_CAT_ID":45427,"ELEMENT_SET_NO":999,"REV_AT_EPOCH":28927,"BSTAR":-0.00013095,"MEAN_MOTION_DOT":-3.4e-7,"MEAN_MOTION_DDOT":0},{"OBJECT_NAME":"ONEWEB-0061","OBJECT_ID":"2020-020E","EPOCH":"2026-03-07T00:10:25.052160","MEAN_MOTION":13.11415825,"ECCENTRICITY":0.0001809,"INCLINATION":87.8862,"RA_OF_ASC_NODE":41.3674,"ARG_OF_PERICENTER":84.8158,"MEAN_ANOMALY":275.3177,"EPHEMERIS_TYPE":0,"CLASSIFICATION_TYPE":"U","NORAD_CAT_ID":45428,"ELEMENT_SET_NO":999,"REV_AT_EPOCH":28923,"BSTAR":0.00045243,"MEAN_MOTION_DOT":1.73e-6,"MEAN_MOTION_DDOT":0},{"OBJECT_NAME":"ONEWEB-0081","OBJECT_ID":"2020-020F","EPOCH":"2026-03-06T21:53:53.168352","MEAN_MOTION":13.1141677,"ECCENTRICITY":0.0001623,"INCLINATION":87.8868,"RA_OF_ASC_NODE":41.4013,"ARG_OF_PERICENTER":84.8961,"MEAN_ANOMALY":275.2352,"EPHEMERIS_TYPE":0,"CLASSIFICATION_TYPE":"U","NORAD_CAT_ID":45429,"ELEMENT_SET_NO":999,"REV_AT_EPOCH":28933,"BSTAR":0.0015567,"MEAN_MOTION_DOT":5.64e-6,"MEAN_MOTION_DDOT":0},{"OBJECT_NAME":"ONEWEB-0069","OBJECT_ID":"2020-020G","EPOCH":"2026-03-07T04:57:29.220480","MEAN_MOTION":13.11418416,"ECCENTRICITY":0.000172,"INCLINATION":87.8862,"RA_OF_ASC_NODE":41.3376,"ARG_OF_PERICENTER":82.3879,"MEAN_ANOMALY":277.7444,"EPHEMERIS_TYPE":0,"CLASSIFICATION_TYPE":"U","NORAD_CAT_ID":45430,"ELEMENT_SET_NO":999,"REV_AT_EPOCH":28930,"BSTAR":0.00013119,"MEAN_MOTION_DOT":5.9e-7,"MEAN_MOTION_DDOT":0},{"OBJECT_NAME":"ONEWEB-0031","OBJECT_ID":"2020-020H","EPOCH":"2026-03-06T22:47:35.580768","MEAN_MOTION":13.1141551,"ECCENTRICITY":0.0001999,"INCLINATION":87.8851,"RA_OF_ASC_NODE":41.407,"ARG_OF_PERICENTER":86.8968,"MEAN_ANOMALY":273.2388,"EPHEMERIS_TYPE":0,"CLASSIFICATION_TYPE":"U","NORAD_CAT_ID":45431,"ELEMENT_SET_NO":999,"REV_AT_EPOCH":28925,"BSTAR":-0.0013057,"MEAN_MOTION_DOT":-4.5e-6,"MEAN_MOTION_DDOT":0},{"OBJECT_NAME":"ONEWEB-0027","OBJECT_ID":"2020-020J","EPOCH":"2026-03-06T22:39:15.318720","MEAN_MOTION":13.17647058,"ECCENTRICITY":0.0002173,"INCLINATION":87.9153,"RA_OF_ASC_NODE":26.1448,"ARG_OF_PERICENTER":78.5311,"MEAN_ANOMALY":281.6064,"EPHEMERIS_TYPE":0,"CLASSIFICATION_TYPE":"U","NORAD_CAT_ID":45432,"ELEMENT_SET_NO":999,"REV_AT_EPOCH":29289,"BSTAR":0.00012497,"MEAN_MOTION_DOT":6.1e-7,"MEAN_MOTION_DDOT":0},{"OBJECT_NAME":"ONEWEB-0064","OBJECT_ID":"2020-020K","EPOCH":"2026-03-06T22:45:09.285696","MEAN_MOTION":13.11414882,"ECCENTRICITY":0.0002006,"INCLINATION":87.8851,"RA_OF_ASC_NODE":41.3977,"ARG_OF_PERICENTER":84.4946,"MEAN_ANOMALY":275.6411,"EPHEMERIS_TYPE":0,"CLASSIFICATION_TYPE":"U","NORAD_CAT_ID":45433,"ELEMENT_SET_NO":999,"REV_AT_EPOCH":28928,"BSTAR":-0.001197,"MEAN_MOTION_DOT":-4.11e-6,"MEAN_MOTION_DDOT":0},{"OBJECT_NAME":"ONEWEB-0018","OBJECT_ID":"2020-020L","EPOCH":"2026-03-06T21:41:40.951680","MEAN_MOTION":13.11418736,"ECCENTRICITY":0.0001759,"INCLINATION":87.8866,"RA_OF_ASC_NODE":41.4031,"ARG_OF_PERICENTER":87.9754,"MEAN_ANOMALY":272.1576,"EPHEMERIS_TYPE":0,"CLASSIFICATION_TYPE":"U","NORAD_CAT_ID":45434,"ELEMENT_SET_NO":999,"REV_AT_EPOCH":28922,"BSTAR":0.0009903,"MEAN_MOTION_DOT":3.64e-6,"MEAN_MOTION_DDOT":0},{"OBJECT_NAME":"ONEWEB-0083","OBJECT_ID":"2020-020M","EPOCH":"2026-03-06T08:39:10.840032","MEAN_MOTION":13.11418005,"ECCENTRICITY":0.00018881,"INCLINATION":87.8867,"RA_OF_ASC_NODE":41.4989,"ARG_OF_PERICENTER":85.0398,"MEAN_ANOMALY":275.0946,"EPHEMERIS_TYPE":0,"CLASSIFICATION_TYPE":"U","NORAD_CAT_ID":45435,"ELEMENT_SET_NO":999,"REV_AT_EPOCH":28919,"BSTAR":-7.9468032e-5,"MEAN_MOTION_DOT":-1.5e-7,"MEAN_MOTION_DDOT":0},{"OBJECT_NAME":"ONEWEB-0095","OBJECT_ID":"2020-020N","EPOCH":"2026-03-06T23:04:52.332384","MEAN_MOTION":13.11418587,"ECCENTRICITY":0.0002279,"INCLINATION":87.8862,"RA_OF_ASC_NODE":41.3882,"ARG_OF_PERICENTER":66.0029,"MEAN_ANOMALY":294.1337,"EPHEMERIS_TYPE":0,"CLASSIFICATION_TYPE":"U","NORAD_CAT_ID":45436,"ELEMENT_SET_NO":999,"REV_AT_EPOCH":28927,"BSTAR":-0.0012959,"MEAN_MOTION_DOT":-4.47e-6,"MEAN_MOTION_DDOT":0}]
