ONEWEB-0058             
1 45161U 20008AG  26066.19707092  .00000437  00000+0  12150-2 0  9996
2 45161  87.8767  56.5875 0001977  93.8524 266.2829 13.10370323295063
ONEWEB-0059             
1 45162U 20008AH  26066.04089242  .00000559  00000+0  15650-2 0  9994
2 45162  87.8765  56.6192 0001808  90.2162 269.9173 13.10371727294944
ONEWEB-0062             
1 45163U 20008AJ  26065.99024526 -.00000517  00000+0 -15184-2 0  9990
2 45163  87.8774  56.6116 0002149  96.2369 263.9003 13.10371386294807
ONEWEB-0065             
1 45164U 20008AK  26065.94447066  .00000312  00000+0  85808-3 0  9996
2 45164  87.8773  56.6295 0001737  74.0096 286.1223 13.10377073294493
ONEWEB-0066             
1 45424U 20020A   26065.90903617  .00000409  00000+0  11191-2 0  9994
2 45424  87.8865  41.4023 0001692  87.4916 272.6406 13.11417373289276
ONEWEB-0067             
1 45425U 20020B   26065.94646731 -.00000447  00000+0 -12962-2 0  9991
2 45425  87.8868  41.3038 0001637  80.1427 279.9886 13.11414435289336
ONEWEB-0080             
1 45426U 20020C   26066.18452524 -.00000650  00000+0 -18687-2 0  9990
2 45426  87.8866  41.3449 0002067  90.8405 269.2959 13.11413653289337
ONEWEB-0090             
1 45427U 20020D   26065.97529171 -.00000034  00000+0 -13095-3 0  9995
2 45427  87.8866  41.3876 0001871  83.4812 276.6529 13.11418315289272
ONEWEB-0061             
1 45428U 20020E   26066.00723440  .00000173  00000+0  45243-3 0  9998
2 45428  87.8862  41.3674 0001809  84.8158 275.3177 13.11415825289238
ONEWEB-0081             
1 45429U 20020F   26065.91242093  .00000564  00000+0  15567-2 0  9997
2 45429  87.8868  41.4013 0001623  84.8961 275.2352 13.11416770289334
ONEWEB-0069             
1 45430U 20020G   26066.20658820  .00000059  00000+0  13119-3 0  9992
2 45430  87.8862  41.3376 0001720  82.3879 277.7444 13.11418416289305
ONEWEB-0031             
1 45431U 20020H   26065.94971737 -.00000450  00000+0 -13057-2 0  9995
2 45431  87.8851  41.4070 0001999  86.8968 273.2388 13.11415510289256
ONEWEB-0027             
1 45432U 20020J   26065.94392730  .00000061  00000+0  12497-3 0  9990
2 45432  87.9153  26.1448 0002173  78.5311 281.6064 13.17647058292895
ONEWEB-0064             
1 45433U 20020K   26065.94802414 -.00000411  00000+0 -11970-2 0  9991
2 45433  87.8851  41.3977 0002006  84.4946 275.6411 13.11414882289280
ONEWEB-0018             
1 45434U 20020L   26065.90394620  .00000364  00000+0  99030-3 0  9992
2 45434  87.8866  41.4031 0001759  87.9754 272.1576 13.11418736289228
ONEWEB-0083             
1 45435U 20020M   26065.36054213 -.00000015  00000+0 -79468-4 0  9993
2 45435  87.8867  41.4989 0001888  85.0398 275.0946 13.11418005289196
ONEWEB-0095             
1 45436U 20020N   26065.96171681 -.00000447  00000+0 -12959-2 0  9998
2 45436  87.8862  41.3882 0002279  66.0029 294.1337 13.11418587289278
